OBJECT_NAME,OBJECT_ID,EPOCH,MEAN_MOTION,ECCENTRICITY,INCLINATION,RA_OF_ASC_NODE,ARG_OF_PERICENTER,MEAN_ANOMALY,EPHEMERIS_TYPE,CLASSIFICATION_TYPE,NORAD_CAT_ID,ELEMENT_SET_NO,REV_AT_EPOCH,BSTAR,MEAN_MOTION_DOT,MEAN_MOTION_DDOT
EMISAT,2019-018A,2026-06-04T06:04:31.181088,14.43680863,.00172599,98.4647,214.1233,256.0359,103.8912,0,U,44078,999,37819,.74398267E-4,.209E-5,0
JILIN-1 GAOFEN 3A,2019-032C,2026-06-04T02:43:22.156032,15.32329478,.00058557,44.9747,68.8730,233.8948,126.1395,0,U,44312,999,38583,.41523633E-3,.12933E-3,0
WT 1B,2019-032G,2026-06-04T04:21:34.303392,15.26918656,.00087626,44.9727,131.9121,181.0703,179.0162,0,U,44316,999,38509,.3723596E-3,.9755E-4,0
PROX-1,2019-036A,2026-06-02T09:29:07.344096,14.90241213,.00056447,23.9937,213.0381,216.2369,143.7749,0,U,44339,999,37126,.1305371E-2,.13271E-3,0
NPSAT1,2019-036B,2026-06-01T16:30:02.500416,14.74428661,.00080322,24.0001,318.6958,35.7344,324.3688,0,U,44340,999,37020,.8434587E-3,.5973E-4,0
FORMOSAT 7-3,2019-036E,2026-06-01T10:53:57.174144,15.09678412,.00011802,24.0003,286.8181,89.1954,270.8685,0,U,44343,999,38086,.28639579E-3,.5082E-4,0
FORMOSAT 7-1,2019-036L,2026-06-01T05:51:20.968416,14.96431318,.00007678,23.9966,139.8706,22.0039,338.0495,0,U,44349,999,38226,.22746787E-3,.2945E-4,0
FORMOSAT 7-4,2019-036M,2026-06-02T07:59:57.389568,14.96434263,.00012642,23.9967,194.6368,37.2837,322.7752,0,U,44350,999,38184,.20226887E-3,.2653E-4,0
FORMOSAT 7-2,2019-036N,2026-06-02T11:44:12.270624,14.96438939,.0000776,23.9983,247.9036,45.2979,314.7584,0,U,44351,999,38138,.23194E-3,.2998E-4,0
FORMOSAT 7-6,2019-036Q,2026-06-01T03:43:34.451040,14.96433653,.00007625,23.9983,77.7033,267.9175,92.1238,0,U,44353,999,37941,.23202823E-3,.2998E-4,0
FORMOSAT 7-5,2019-036V,2026-06-02T19:11:25.287072,14.96449887,.00004688,24.0006,5.3713,42.2420,317.8117,0,U,44358,999,38019,.24093441E-3,.3103E-4,0
METEOR-M2 2,2019-038A,2026-06-04T05:58:43.808160,14.24361675,.00023512,98.9140,142.3442,67.5671,292.5756,0,U,44387,999,35945,-.1821873E-4,-.88E-6,0
GLOBAL-4,2019-054E,2026-06-01T19:25:47.072640,15.62828840,.0006292,45.0073,325.0328,248.1786,111.8441,0,U,44499,999,37795,.65879081E-3,.61014E-3,0
ZY-1 02D,2019-059A,2026-06-04T07:31:18.331968,14.35455132,.0002048,98.3191,217.2534,127.5270,232.6103,0,U,44528,999,35249,-.9442302E-5,-.69E-6,0
TAURUS-1 (JINNIUZUO 1),2019-059C,2026-06-04T06:14:06.896256,14.71949856,.00081915,98.6410,319.2874,0.8601,359.2617,0,U,44530,999,35674,.9611384E-3,.5977E-4,0
ZHUHAI-1 03B,2019-060C,2026-06-04T05:43:05.059200,15.53338324,.00082056,97.5519,312.3130,11.1294,349.0138,0,U,44536,999,37431,.52688312E-3,.33288E-3,0
ZHUHAI-1 03C,2019-060D,2026-06-03T03:53:35.420928,16.31889338,.0012525,97.5247,325.4962,265.6201,94.3663,0,U,44537,999,37503,.83050081E-3,.4414569E-1,.2579305E-5
ZHUHAI-1 03D,2019-060E,2026-06-04T05:49:03.334080,15.48988974,.00070573,97.5383,304.5524,354.9344,5.1834,0,U,44538,999,37407,.62372049E-3,.33768E-3,0
ZHUHAI-1 03E,2019-060F,2026-06-04T06:07:41.801952,15.40628432,.000686,97.5605,304.7595,74.9031,285.2974,0,U,44539,999,37377,.47655301E-3,.19362E-3,0
GAOFEN-7,2019-072A,2026-06-04T05:50:04.868160,15.21497862,.00181807,97.2429,217.1951,82.6088,277.7214,0,U,44703,999,36567,.21151467E-3,.4712E-4,0
JILIN-1 GAOFEN 2A,2019-075A,2026-06-04T06:17:54.712320,15.38957406,.00075941,97.4965,238.7540,125.0040,235.1919,0,U,44777,999,36289,.41615304E-3,.15991E-3,0
NINGXIA-1 1,2019-076A,2026-06-04T06:48:49.718592,14.02037250,.00101403,45.0051,237.5149,98.9792,261.2190,0,U,44779,999,33604,.27154154E-4,-.88E-6,0
NINGXIA-1 5,2019-076E,2026-06-04T07:08:36.147840,14.02086009,.00098549,45.0054,236.7993,87.5626,272.6336,0,U,44783,999,33596,.12670318E-3,.65E-6,0
KL-ALPHA A,2019-077A,2026-06-04T06:44:46.422240,13.56042064,.00124886,88.9259,223.9751,138.3117,221.8992,0,U,44785,999,32398,.94442953E-4,.79E-6,0
CARTOSAT-3,2019-081A,2026-06-04T05:56:59.250336,15.19356876,.00122878,97.4307,217.3223,189.8912,170.2083,0,U,44804,999,36150,.26974394E-3,.5646E-4,0
JILIN-1 GAOFEN 2B,2019-086A,2026-06-04T05:59:33.254880,15.20562730,.00140618,97.4882,227.3228,11.6676,348.4883,0,U,44836,999,35852,.31686162E-3,.6886E-4,0
TIANQIN 1 (CAS-6),2019-093A,2026-06-04T07:24:47.835936,14.95369886,.00126978,97.7801,239.2426,96.2431,264.0236,0,U,44879,999,35012,.3289288E-3,.3578E-4,0
ETRSS-1,2019-093B,2026-06-04T06:03:34.837920,14.95794749,.00130987,97.7825,239.6343,96.5224,263.7489,0,U,44880,999,35012,.43822166E-3,.484E-4,0
