EMISAT                  
1 44078U 19018A   26155.25313867  .00000209  00000+0  74398-4 0  9991
2 44078  98.4647 214.1233 0017259 256.0359 103.8912 14.43680863378198
JILIN-1 GAOFEN 3A       
1 44312U 19032C   26155.11345088  .00012933  00000+0  41524-3 0  9994
2 44312  44.9747  68.8730 0005855 233.8948 126.1395 15.32329478385831
WT 1B                   
1 44316U 19032G   26155.18164703  .00009755  00000+0  37236-3 0  9991
2 44316  44.9727 131.9121 0008762 181.0703 179.0162 15.26918656385094
PROX-1                  
1 44339U 19036A   26153.39522389  .00013271  00000+0  13054-2 0  9998
2 44339  23.9937 213.0381 0005644 216.2369 143.7749 14.90241213371265
NPSAT1                  
1 44340U 19036B   26152.68752894  .00005973  00000+0  84346-3 0  9990
2 44340  24.0001 318.6958 0008032  35.7344 324.3688 14.74428661370202
FORMOSAT 7-3            
1 44343U 19036E   26152.45413396  .00005082  00000+0  28640-3 0  9995
2 44343  24.0003 286.8181 0001180  89.1954 270.8685 15.09678412380863
FORMOSAT 7-1            
1 44349U 19036L   26152.24399269  .00002945  00000+0  22747-3 0  9997
2 44349  23.9966 139.8706 0000767  22.0039 338.0495 14.96431318382264
FORMOSAT 7-4            
1 44350U 19036M   26153.33330312  .00002653  00000+0  20227-3 0  9991
2 44350  23.9967 194.6368 0001264  37.2837 322.7752 14.96434263381848
FORMOSAT 7-2            
1 44351U 19036N   26153.48903091  .00002998  00000+0  23194-3 0  9996
2 44351  23.9983 247.9036 0000776  45.2979 314.7584 14.96438939381381
FORMOSAT 7-6            
1 44353U 19036Q   26152.15525985  .00002998  00000+0  23203-3 0  9994
2 44353  23.9983  77.7033 0000762 267.9175  92.1238 14.96433653379417
FORMOSAT 7-5            
1 44358U 19036V   26153.79959823  .00003103  00000+0  24093-3 0  9999
2 44358  24.0006   5.3713 0000468  42.2420 317.8117 14.96449887380198
METEOR-M2 2             
1 44387U 19038A   26155.24911815 -.00000088  00000+0 -18219-4 0  9999
2 44387  98.9140 142.3442 0002351  67.5671 292.5756 14.24361675359453
GLOBAL-4                
1 44499U 19054E   26152.80957260  .00061014  00000+0  65879-3 0  9991
2 44499  45.0073 325.0328 0006292 248.1786 111.8441 15.62828840377954
ZY-1 02D                
1 44528U 19059A   26155.31340662 -.00000069  00000+0 -94423-5 0  9994
2 44528  98.3191 217.2534 0002048 127.5270 232.6103 14.35455132352491
TAURUS-1 (JINNIUZUO 1)  
1 44530U 19059C   26155.25980204  .00005977  00000+0  96114-3 0  9990
2 44530  98.6410 319.2874 0008191   0.8601 359.2617 14.71949856356746
ZHUHAI-1 03B            
1 44536U 19060C   26155.23825300  .00033288  00000+0  52688-3 0  9995
2 44536  97.5519 312.3130 0008205  11.1294 349.0138 15.53338324374319
ZHUHAI-1 03C            
1 44537U 19060D   26154.16221552  .04414569  25793-5  83050-3 0  9994
2 44537  97.5247 325.4962 0012525 265.6201  94.3663 16.31889338375036
ZHUHAI-1 03D            
1 44538U 19060E   26155.24239970  .00033768  00000+0  62372-3 0  9994
2 44538  97.5383 304.5524 0007057 354.9344   5.1834 15.48988974374070
ZHUHAI-1 03E            
1 44539U 19060F   26155.25534493  .00019362  00000+0  47655-3 0  9995
2 44539  97.5605 304.7595 0006860  74.9031 285.2974 15.40628432373775
GAOFEN-7                
1 44703U 19072A   26155.24311190  .00004712  00000+0  21151-3 0  9993
2 44703  97.2429 217.1951 0018180  82.6088 277.7214 15.21497862365671
JILIN-1 GAOFEN 2A       
1 44777U 19075A   26155.26243880  .00015991  00000+0  41615-3 0  9997
2 44777  97.4965 238.7540 0007594 125.0040 235.1919 15.38957406362893
NINGXIA-1 1             
1 44779U 19076A   26155.28390878 -.00000088  00000+0  27154-4 0  9997
2 44779  45.0051 237.5149 0010140  98.9792 261.2190 14.02037250336040
NINGXIA-1 5             
1 44783U 19076E   26155.29764060  .00000065  00000+0  12670-3 0  9991
2 44783  45.0054 236.7993 0009854  87.5626 272.6336 14.02086009335960
KL-ALPHA A              
1 44785U 19077A   26155.28109285  .00000079  00000+0  94443-4 0  9999
2 44785  88.9259 223.9751 0012488 138.3117 221.8992 13.56042064323986
CARTOSAT-3              
1 44804U 19081A   26155.24790799  .00005646  00000+0  26974-3 0  9996
2 44804  97.4307 217.3223 0012287 189.8912 170.2083 15.19356876361507
JILIN-1 GAOFEN 2B       
1 44836U 19086A   26155.24969045  .00006886  00000+0  31686-3 0  9991
2 44836  97.4882 227.3228 0014061  11.6676 348.4883 15.20562730358522
TIANQIN 1 (CAS-6)       
1 44879U 19093A   26155.30888699  .00003578  00000+0  32893-3 0  9994
2 44879  97.7801 239.2426 0012697  96.2431 264.0236 14.95369886350127
ETRSS-1                 
1 44880U 19093B   26155.25248655  .00004840  00000+0  43822-3 0  9999
2 44880  97.7825 239.6343 0013098  96.5224 263.7489 14.95794749350122
